{"_default": { "4": {"norad_id": "44387", "name": "METEOR M2-2", "tle1": "1 44387U 19038A   26164.94310225  .00000135  00000-0  78271-4 0  9990", "tle2": "2 44387  98.9137 152.1802 0002137  53.4860 306.6515 14.24365448360830", "object_type": "PAYLOAD", "criticality_score": 9.0, "last_updated": "2026-06-14T08:16:17.656748+00:00", "maneuver_count": 0, "owner": "N/A"}, "41": {"norad_id": "44339", "name": "PROX-1", "tle1": "1 44339U 19036A   26164.24145975  .00013759  00000-0  13448-2 0  9995", "tle2": "2 44339  23.9923 140.6090 0005471 351.0248   9.0153 14.90523794372883", "object_type": "PAYLOAD", "criticality_score": 9.0, "last_updated": "2026-06-14T08:16:17.656748+00:00", "maneuver_count": 0, "owner": "N/A"}, "102": {"norad_id": "44881", "name": "OBJECT C", "tle1": "1 44881U 19093C   26164.94836839  .00000867  00000-0  10385-3 0  9997", "tle2": "2 44881  97.7535 237.2592 0015043  96.7418 263.5511 14.86513612350931", "object_type": "PAYLOAD", "criticality_score": 9.0, "last_updated": "2026-06-14T08:16:17.656748+00:00", "maneuver_count": 0, "owner": "N/A"}, "131": {"norad_id": "44530", "name": "TAURUS-1", "tle1": "1 44530U 19059C   26164.91217428  .00005913  00000-0  94850-3 0  9990", "tle2": "2 44530  98.6405 329.5374 0007595 328.1819  31.8926 14.72066834358164", "object_type": "PAYLOAD", "criticality_score": 9.0, "last_updated": "2026-06-14T08:16:17.656748+00:00", "maneuver_count": 0, "owner": "N/A"}, "132": {"norad_id": "44350", "name": "FORMOSAT7-4/COSMIC2-4", "tle1": "1 44350U 19036M   26164.53546306  .00002573  00000-0  19512-3 0  9994", "tle2": "2 44350  23.9975 119.1166 0001353 138.0136 222.0469 14.96484230383529", "object_type": "PAYLOAD", "criticality_score": 9.0, "last_updated": "2026-06-14T08:16:17.656748+00:00", "maneuver_count": 0, "owner": "N/A"}, "168": {"norad_id": "44694", "name": "ATLAS 5 CENTAUR DEB", "tle1": "1 44694U 18079BG  26164.32071674 -.00000077  00000-0  00000-0 0  9996", "tle2": "2 44694  13.6190  39.5943 4722270 298.6048  22.0542  1.77426445 46491", "object_type": "DEBRIS", "criticality_score": 9.0, "last_updated": "2026-06-14T08:16:17.656748+00:00", "maneuver_count": 0, "owner": "N/A"}, "186": {"norad_id": "44804", "name": "CARTOSAT 3", "tle1": "1 44804U 19081A   26164.93004095  .00003265  00000-0  15781-3 0  9999", "tle2": "2 44804  97.4311 226.8490 0012880 159.0655 201.1110 15.19257928362970", "object_type": "PAYLOAD", "criticality_score": 9.0, "last_updated": "2026-06-14T08:16:17.656748+00:00", "maneuver_count": 0, "owner": "N/A"}, "237": {"norad_id": "44499", "name": "GLOBAL-4", "tle1": "1 44499U 19054E   26164.94868954  .00051365  00000-0  52843-3 0  9996", "tle2": "2 44499  45.0062 255.0854 0006284 317.6117  42.4295 15.64125803379857", "object_type": "PAYLOAD", "criticality_score": 9.0, "last_updated": "2026-06-14T08:16:17.656748+00:00", "maneuver_count": 0, "owner": "N/A"}, "240": {"norad_id": "44343", "name": "FORMOSAT7-3/COSMIC2-3", "tle1": "1 44343U 19036E   26164.48280329  .00004057  00000-0  22385-3 0  9991", "tle2": "2 44343  23.9977 204.0393 0000513 189.6992 170.3502 15.09778691382689", "object_type": "PAYLOAD", "criticality_score": 9.0, "last_updated": "2026-06-14T08:16:17.656748+00:00", "maneuver_count": 0, "owner": "N/A"}, "241": {"norad_id": "44349", "name": "FORMOSAT7-1/COSMIC2-1", "tle1": "1 44349U 19036L   26164.97975385  .00002680  00000-0  20432-3 0  9995", "tle2": "2 44349  23.9982  54.0160 0000954 127.9371 232.1216 14.96492774384176", "object_type": "PAYLOAD", "criticality_score": 9.0, "last_updated": "2026-06-14T08:16:17.656748+00:00", "maneuver_count": 0, "owner": "N/A"}, "242": {"norad_id": "44351", "name": "FORMOSAT7-2/COSMIC2-2", "tle1": "1 44351U 19036N   26164.69116443  .00002418  00000-0  18177-3 0  9991", "tle2": "2 44351  23.9963 172.3848 0000938 128.3197 231.7388 14.96486211383069", "object_type": "PAYLOAD", "criticality_score": 9.0, "last_updated": "2026-06-14T08:16:17.656748+00:00", "maneuver_count": 0, "owner": "N/A"}, "243": {"norad_id": "44353", "name": "FORMOSAT7-6/COSMIC2-6", "tle1": "1 44353U 19036Q   26164.82431275  .00002785  00000-0  21331-3 0  9994", "tle2": "2 44353  24.0001 352.3014 0001385  64.0833 295.9811 14.96498287381316", "object_type": "PAYLOAD", "criticality_score": 9.0, "last_updated": "2026-06-14T08:16:17.656748+00:00", "maneuver_count": 0, "owner": "N/A"}, "244": {"norad_id": "44358", "name": "FORMOSAT7-5/COSMIC2-5", "tle1": "1 44358U 19036V   26164.66822780  .00002767  00000-0  21175-3 0  9992", "tle2": "2 44358  23.9989 292.1070 0000674 103.4426 256.6150 14.96505000381821", "object_type": "PAYLOAD", "criticality_score": 9.0, "last_updated": "2026-06-14T08:16:17.656748+00:00", "maneuver_count": 0, "owner": "N/A"}, "270": {"norad_id": "44312", "name": "OBJECT C", "tle1": "1 44312U 19032C   26164.89134689  .00010612  00000-0  34004-3 0  9990", "tle2": "2 44312  44.9762  15.0751 0006542 279.6731  80.3414 15.32564885387330", "object_type": "PAYLOAD", "criticality_score": 9.0, "last_updated": "2026-06-14T08:16:17.656748+00:00", "maneuver_count": 0, "owner": "N/A"}, "322": {"norad_id": "44316", "name": "OBJECT G", "tle1": "1 44316U 19032G   26164.92889602  .00009040  00000-0  34368-3 0  9996", "tle2": "2 44316  44.9724  78.7213 0009673 232.8370 127.1630 15.27125784386580", "object_type": "PAYLOAD", "criticality_score": 9.0, "last_updated": "2026-06-14T08:16:17.656748+00:00", "maneuver_count": 0, "owner": "N/A"}, "341": {"norad_id": "44882", "name": "OBJECT D", "tle1": "1 44882U 19093D   26164.92859946  .00007055  00000-0  49783-3 0  9990", "tle2": "2 44882  97.7946 259.6869 0014379  40.3075 319.9214 15.05194753352120", "object_type": "PAYLOAD", "criticality_score": 9.0, "last_updated": "2026-06-14T08:16:17.656748+00:00", "maneuver_count": 0, "owner": "N/A"}, "410": {"norad_id": "44703", "name": "GAOFEN 7", "tle1": "1 44703U 19072A   26164.97634341  .00004516  00000-0  20240-3 0  9990", "tle2": "2 44703  97.2434 226.5642 0017644  51.4369 308.8445 15.21579985367152", "object_type": "PAYLOAD", "criticality_score": 9.0, "last_updated": "2026-06-14T08:16:17.656748+00:00", "maneuver_count": 0, "owner": "N/A"}, "412": {"norad_id": "44779", "name": "NINGXIA-1 1", "tle1": "1 44779U 19076A   26164.97497686 -.00000084  00000-0  29569-4 0  9997", "tle2": "2 44779  45.0037 194.2071 0010430 147.7784 212.3689 14.02037854337404", "object_type": "PAYLOAD", "criticality_score": 9.0, "last_updated": "2026-06-14T08:16:17.656748+00:00", "maneuver_count": 0, "owner": "N/A"}, "435": {"norad_id": "44785", "name": "KL-ALPHA A", "tle1": "1 44785U 19077A   26164.94733770 -.00000008  00000-0 -29611-4 0  9994", "tle2": "2 44785  88.9259 222.9187 0013136 113.9140 246.3392 13.56042482325290", "object_type": "PAYLOAD", "criticality_score": 9.0, "last_updated": "2026-06-14T08:16:17.656748+00:00", "maneuver_count": 0, "owner": "N/A"}, "485": {"norad_id": "44879", "name": "OBJECT A", "tle1": "1 44879U 19093A   26164.94438432  .00000794  00000-0  77042-4 0  9994", "tle2": "2 44879  97.7814 248.8080 0012465  67.1532 293.1004 14.95419716351568", "object_type": "PAYLOAD", "criticality_score": 9.0, "last_updated": "2026-06-14T08:16:17.656748+00:00", "maneuver_count": 0, "owner": "N/A"}, "488": {"norad_id": "44880", "name": "OBJECT B", "tle1": "1 44880U 19093B   26164.95213758  .00001379  00000-0  12849-3 0  9992", "tle2": "2 44880  97.7825 249.2718 0012440  66.9922 293.2610 14.95847316351574", "object_type": "PAYLOAD", "criticality_score": 9.0, "last_updated": "2026-06-14T08:16:17.656748+00:00", "maneuver_count": 0, "owner": "N/A"}, "500": {"norad_id": "44538", "name": "ZHUHAI-1 03D", "tle1": "1 44538U 19060E   26164.93056969  .00029353  00000-0  53161-3 0  9997", "tle2": "2 44538  97.5383 314.6703 0006713 314.3184  45.7516 15.49583360375575", "object_type": "PAYLOAD", "criticality_score": 9.0, "last_updated": "2026-06-14T08:16:17.656748+00:00", "maneuver_count": 0, "owner": "N/A"}, "504": {"norad_id": "44836", "name": "JILIN-01 GAOFEN 2B", "tle1": "1 44836U 19086A   26164.92294369  .00006004  00000-0  27589-3 0  9996", "tle2": "2 44836  97.4889 236.9340 0013129 336.6669  23.3969 15.20679370359991", "object_type": "PAYLOAD", "criticality_score": 9.0, "last_updated": "2026-06-14T08:16:17.656748+00:00", "maneuver_count": 0, "owner": "N/A"}, "505": {"norad_id": "44777", "name": "JILIN-01 GAOFEN 2A", "tle1": "1 44777U 19075A   26164.94972589  .00013687  00000-0  35348-3 0  9994", "tle2": "2 44777  97.4974 248.6638 0007555  97.0764 263.1341 15.39230552364382", "object_type": "PAYLOAD", "criticality_score": 9.0, "last_updated": "2026-06-14T08:16:17.656748+00:00", "maneuver_count": 0, "owner": "N/A"}, "511": {"norad_id": "44528", "name": "ZY-1 02D", "tle1": "1 44528U 19059A   26164.93262817  .00000053  00000-0  33053-4 0  9990", "tle2": "2 44528  98.3196 226.5323 0002403 112.1199 248.0242 14.35458321353871", "object_type": "PAYLOAD", "criticality_score": 9.0, "last_updated": "2026-06-14T08:16:17.656748+00:00", "maneuver_count": 0, "owner": "N/A"}, "528": {"norad_id": "44536", "name": "ZHUHAI-1 03B", "tle1": "1 44536U 19060C   26164.96374676  .00031242  00000-0  48441-3 0  9991", "tle2": "2 44536  97.5518 322.5553 0007630 330.9970  29.0858 15.53927064375820", "object_type": "PAYLOAD", "criticality_score": 9.0, "last_updated": "2026-06-14T08:16:17.656748+00:00", "maneuver_count": 0, "owner": "N/A"}, "570": {"norad_id": "44421", "name": "COSMOS 2535", "tle1": "1 44421U 19039A   26164.92308681  .00000786  00000-0  82917-4 0  9995", "tle2": "2 44421  97.5767 193.2118 0007284 214.2434 145.8317 14.91936487376157", "object_type": "PAYLOAD", "criticality_score": 9.0, "last_updated": "2026-06-14T08:16:17.656748+00:00", "maneuver_count": 0, "owner": "N/A"}, "624": {"norad_id": "44539", "name": "ZHUHAI-1 03E", "tle1": "1 44539U 19060F   26164.93189698  .00017955  00000-0  43725-3 0  9994", "tle2": "2 44539  97.5602 314.7663 0006186  44.1505 316.0234 15.40972021375269", "object_type": "PAYLOAD", "criticality_score": 9.0, "last_updated": "2026-06-14T08:16:17.656748+00:00", "maneuver_count": 0, "owner": "N/A"}, "630": {"norad_id": "44783", "name": "NINGXIA-1 5", "tle1": "1 44783U 19076E   26164.91712461 -.00000200  00000-0 -45706-4 0  9999", "tle2": "2 44783  45.0040 193.8080 0009906 136.4040 223.7579 14.02084953337310", "object_type": "PAYLOAD", "criticality_score": 9.0, "last_updated": "2026-06-14T08:16:17.656748+00:00", "maneuver_count": 0, "owner": "N/A"}, "648": {"norad_id": "44340", "name": "NPSAT1", "tle1": "1 44340U 19036B   26164.86914204  .00004984  00000-0  69570-3 0  9992", "tle2": "2 44340  23.9996 239.3737 0007490 168.0991 191.9683 14.74554452372003", "object_type": "PAYLOAD", "criticality_score": 9.0, "last_updated": "2026-06-14T08:16:17.656748+00:00", "maneuver_count": 0, "owner": "N/A"}}}