OBJECT_NAME,OBJECT_ID,EPOCH,MEAN_MOTION,ECCENTRICITY,INCLINATION,RA_OF_ASC_NODE,ARG_OF_PERICENTER,MEAN_ANOMALY,EPHEMERIS_TYPE,CLASSIFICATION_TYPE,NORAD_CAT_ID,ELEMENT_SET_NO,REV_AT_EPOCH,BSTAR,MEAN_MOTION_DOT,MEAN_MOTION_DDOT
JILIN-1 GAOFEN 3A,2019-032C,2026-06-13T21:23:32.371296,15.32564885,.00065419,44.9762,15.0751,279.6731,80.3414,0,U,44312,999,38733,.34004158E-3,.10612E-3,0
WT 1B,2019-032G,2026-06-13T22:17:36.616128,15.27125784,.00096733,44.9724,78.7213,232.8370,127.1630,0,U,44316,999,38658,.34368276E-3,.904E-4,0
PROX-1,2019-036A,2026-06-13T05:47:42.122400,14.90523794,.0005471,23.9923,140.6090,351.0248,9.0153,0,U,44339,999,37288,.13448E-2,.13759E-3,0
NPSAT1,2019-036B,2026-06-13T20:51:33.872256,14.74554452,.000749,23.9996,239.3737,168.0991,191.9683,0,U,44340,999,37200,.69569941E-3,.4984E-4,0
FORMOSAT 7-3,2019-036E,2026-06-13T11:35:14.204256,15.09778691,.00005134,23.9977,204.0393,189.6992,170.3502,0,U,44343,999,38268,.22384698E-3,.4057E-4,0
FORMOSAT 7-1,2019-036L,2026-06-13T23:30:50.732640,14.96492774,.00009541,23.9982,54.0160,127.9371,232.1216,0,U,44349,999,38417,.20431948E-3,.268E-4,0
FORMOSAT 7-4,2019-036M,2026-06-13T12:51:04.008384,14.96484230,.00013533,23.9975,119.1166,138.0136,222.0469,0,U,44350,999,38352,.1951164E-3,.2573E-4,0
FORMOSAT 7-2,2019-036N,2026-06-13T16:35:16.606752,14.96486211,.00009384,23.9963,172.3848,128.3197,231.7388,0,U,44351,999,38306,.18177139E-3,.2418E-4,0
FORMOSAT 7-6,2019-036Q,2026-06-13T19:47:00.621600,14.96498287,.00013847,24.0001,352.3014,64.0833,295.9811,0,U,44353,999,38131,.2133059E-3,.2785E-4,0
FORMOSAT 7-5,2019-036V,2026-06-13T16:02:14.881920,14.96505000,.00006745,23.9989,292.1070,103.4426,256.6150,0,U,44358,999,38182,.21175005E-3,.2767E-4,0
METEOR-M2 2,2019-038A,2026-06-13T22:38:04.034400,14.24365448,.00021374,98.9137,152.1802,53.4860,306.6515,0,U,44387,999,36083,.78270573E-4,.135E-5,0
COSMOS 2535,2019-039A,2026-06-13T22:09:14.700384,14.91936487,.00072837,97.5767,193.2118,214.2434,145.8317,0,U,44421,999,37615,.82917119E-4,.786E-5,0
GLOBAL-4,2019-054E,2026-06-13T22:46:06.776256,15.64125803,.00062836,45.0062,255.0854,317.6117,42.4295,0,U,44499,999,37985,.52842556E-3,.51365E-3,0
ZY-1 02D,2019-059A,2026-06-13T22:22:59.073888,14.35458321,.00024033,98.3196,226.5323,112.1199,248.0242,0,U,44528,999,35387,.33052814E-4,.53E-6,0
TAURUS-1 (JINNIUZUO 1),2019-059C,2026-06-13T21:53:31.857792,14.72066834,.00075954,98.6405,329.5374,328.1819,31.8926,0,U,44530,999,35816,.94849996E-3,.5913E-4,0
ZHUHAI-1 03B,2019-060C,2026-06-13T23:07:47.720064,15.53927064,.00076296,97.5518,322.5553,330.9970,29.0858,0,U,44536,999,37582,.48440676E-3,.31242E-3,0
ZHUHAI-1 03D,2019-060E,2026-06-13T22:20:01.221216,15.49583360,.00067125,97.5383,314.6703,314.3184,45.7516,0,U,44538,999,37557,.53160986E-3,.29353E-3,0
ZHUHAI-1 03E,2019-060F,2026-06-13T22:21:55.899072,15.40972021,.00061856,97.5602,314.7663,44.1505,316.0234,0,U,44539,999,37526,.43725067E-3,.17955E-3,0
ATLAS 5 CENTAUR DEB,2018-079BG,2026-06-13T07:41:49.926336,1.77426445,.47222703,13.6190,39.5943,298.6048,22.0542,0,U,44694,999,4649,0,-.77E-6,0
GAOFEN-7,2019-072A,2026-06-13T23:25:56.070624,15.21579985,.00176436,97.2434,226.5642,51.4369,308.8445,0,U,44703,999,36715,.20240425E-3,.4516E-4,0
JILIN-1 GAOFEN 2A,2019-075A,2026-06-13T22:47:36.316896,15.39230552,.00075554,97.4974,248.6638,97.0764,263.1341,0,U,44777,999,36438,.35347645E-3,.13687E-3,0
NINGXIA-1 1,2019-076A,2026-06-13T23:23:58.000704,14.02037854,.00104304,45.0037,194.2071,147.7784,212.3689,0,U,44779,999,33740,.29568942E-4,-.84E-6,0
NINGXIA-1 5,2019-076E,2026-06-13T22:00:39.566304,14.02084953,.00099063,45.0040,193.8080,136.4040,223.7579,0,U,44783,999,33731,-.45705628E-4,-.2E-5,0
KL-ALPHA A,2019-077A,2026-06-13T22:44:09.977280,13.56042482,.0013136,88.9259,222.9187,113.9140,246.3392,0,U,44785,999,32529,-.29611084E-4,-.8E-7,0
CARTOSAT-3,2019-081A,2026-06-13T22:19:15.538080,15.19257928,.00128796,97.4311,226.8490,159.0655,201.1110,0,U,44804,999,36297,.1578112E-3,.3265E-4,0
JILIN-1 GAOFEN 2B,2019-086A,2026-06-13T22:09:02.334816,15.20679370,.00131292,97.4889,236.9340,336.6669,23.3969,0,U,44836,999,35999,.27589272E-3,.6004E-4,0
TIANQIN 1 (CAS-6),2019-093A,2026-06-13T22:39:54.805248,14.95419716,.0012465,97.7814,248.8080,67.1532,293.1004,0,U,44879,999,35156,.77041727E-4,.794E-5,0
ETRSS-1,2019-093B,2026-06-13T22:51:04.686912,14.95847316,.001244,97.7825,249.2718,66.9922,293.2610,0,U,44880,999,35157,.12848908E-3,.1379E-4,0
TIANYAN 01,2019-093C,2026-06-13T22:45:39.028896,14.86513612,.00150433,97.7535,237.2592,96.7418,263.5511,0,U,44881,999,35093,.10385424E-3,.867E-5,0
TIANYAN 02,2019-093D,2026-06-13T22:17:10.993344,15.05194753,.00143794,97.7946,259.6869,40.3075,319.9214,0,U,44882,999,35212,.49783029E-3,.7055E-4,0
